0 OPS 3367 A
1   734U 64002B   19266.50197858 -.00000003 +00000-0 +17953-4 0  9996
2   734 099.1057 066.1969 0015555 102.5240 257.7681 14.28857127897598
0 OPS 3367 A
1   734U 64002B   19267.06218128 -.00000003  00000-0  17981-4 0  9993
2   734  99.1058  66.7816 0015563 101.0093 259.2839 14.28857173897756
0 OPS 3367 B
1   735U 64002C   19267.83913885 -.00000008  00000-0  16199-4 0  9996
2   735  99.1050  62.1870 0016383 200.2775 159.7756 14.27811402896057
0 RELAY 2
1   737U 64003A   19266.96753050 -.00000021  00000-0  00000+0 0  9992
2   737  46.4440 232.0497 2587186 145.8063 234.0024  7.39527482504496
0 DELTA 1 R/B
1   738U 64003B   19266.27133648 -.00000004 +00000-0 +24850-2 0  9995
2   738 046.4440 240.7757 2591189 137.8528 245.3348 07.39318357503602
0 ATLAS CENTAUR 2 DEB
1   739U 63047H   19266.25616640 +.00000166 +00000-0 +91274-5 0  9994
2   739 030.4268 253.0469 0647379 256.6301 096.1364 13.82377278800726
0 THOR AGENA B R/B
1   741U 64004B   19266.89379631 +.00000078 +00000-0 +14564-3 0  9994
2   741 081.4946 011.3303 0172456 179.0291 322.4139 13.23655110687823
0 THOR AGENA B DEB
1   743U 64004D   19266.86561558 +.00000025 +00000-0 +33341-4 0  9991
2   743 081.5260 016.7251 0173322 321.6416 184.4095 13.26457896692178
0 THOR AGENA B DEB
1   743U 64004D   19266.86561558  .00000025  00000-0  33341-4 0  9991
2   743  81.5260  16.7251 0173322 321.6416 184.4095 13.26457896692167
0 THOR ABLESTAR DEB
1   745U 63038E   19266.89532201 +.00000115 +00000-0 +15525-3 0  9998
2   745 090.0733 329.2392 0015562 249.9074 172.4354 13.54437611758623
0 ELEKTRON 1
1   746U 64006A   19266.32937511 +.00000009 +00000-0 +18049-4 0  9993
2   746 060.8485 255.2640 3030379 318.6825 021.9867 09.03616310844459
0 ELEKTRON 1
1   746U 64006A   19266.99334406  .00000028  00000-0  23206-4 0  9992
2   746  60.8486 254.3748 3030379 318.8529  21.8889  9.03616408844497
0 ELEKTRON 1 DEB
1   750U 64006C   19266.83225365 +.00003540 +00000-0 +44094-3 0  9992
2   750 060.7659 163.1847 1714350 047.8171 325.6121 11.77902442551138
0 ELEKTRON 1 DEB
1   750U 64006C   19267.25670371  .00003573  00000-0  44474-3 0  9998
2   750  60.7659 162.2591 1714370  47.9980 325.4731 11.77905488551166
0 THOR ABLESTAR DEB
1   753U 63049F   19266.57506156 +.00000130 +00000-0 +17725-3 0  9995
2   753 089.9064 095.4187 0030982 151.8602 270.4760 13.53736693747800
0 OPS 4412 (TRANSIT 9)
1   801U 64026A   19266.69614838 +.00000123 +00000-0 +58561-4 0  9991
2   801 090.5094 051.2668 0049932 035.5602 324.8896 14.14581645838372
0 OPS 4412 (TRANSIT 9)
1   801U 64026A   19267.82793498  .00000112  00000-0  52950-4 0  9991
2   801  90.5096  51.3315 0049807  32.0191 328.4006 14.14581834838957
0 SCOUT X-4 R/B
1   809U 64026D   19267.45055260  .00000186  00000-0  10135-3 0  9995
2   809  90.5002  43.4308 0040266 359.3760   0.7367 14.09086037832305
0 SCOUT X-4 R/B
1   809U 64026D   19266.66941702 +.00000207 +00000-0 +11330-3 0  9994
2   809 090.5001 043.3874 0040369 001.8990 358.2340 14.09085799831786
0 OPS 4467 A
1   812U 64031A   19266.57371829 -.00000018 +00000-0 +15701-4 0  9999
2   812 099.8371 104.3026 0006136 129.8510 230.3205 14.23844353866358
0 OPS 4467 A
1   812U 64031A   19267.62777978 -.00000010  00000-0  19098-4 0  9996
2   812  99.8370 105.4806 0006166 127.1987 232.9751 14.23844426866969
0 OPS 4467 B
1   813U 64031B   19266.58274695 -.00000028 +00000-0 +11449-4 0  9990
2   813 099.8473 102.8162 0004929 205.8561 154.2367 14.23041867865187
0 OPS 4467 B
1   813U 64031B   19267.14522981 -.00000025  00000-0  12674-4 0  9995
2   813  99.8473 103.4447 0004947 204.1363 155.9581 14.23041878865764
0 THOR AGENA D R/B
1   815U 64031C   19266.98886415  .00000005  00000-0  24307-4 0  9996
2   815  99.8394 234.5061 0012213  22.7405 337.4310 14.27306104870653
0 THOR AGENA D R/B
1   815U 64031C   19266.84866347 +.00000005 +00000-0 +24496-4 0  9992
2   815 099.8393 234.3485 0012218 023.1143 337.0581 14.27306091870212
0 ELEKTRON 3
1   829U 64038A   19266.72887881 +.00000143 +00000-0 +52539-4 0  9999
2   829 060.8074 338.1577 2984516 056.0321 328.9407 09.13903214790104
0 ELEKTRON 3 DEB
1   831U 64038C   19266.56195495 +.00001591 +00000-0 +21380-3 0  9994
2   831 060.7197 266.8413 1597110 289.5142 054.0499 12.01083127063970
0 ELEKTRON 3 DEB
1   831U 64038C   19267.47771113  .00001657  00000-0  22195-3 0  9990
2   831  60.7198 264.7645 1597102 289.9331  53.6870 12.01086470 64063
0 DELTA 1 R/B
1   862U 64047B   19267.00688983 -.00000045  00000-0 -41583-1 0  9997
2   862  16.6766 319.0085 7118866 149.7458 302.4467  2.05100298208004
0 DELTA 1 R/B
1   862U 64047B   19265.99999201 -.00000119 +00000-0 -44900-1 0  9999
2   862 016.6791 319.2860 7118905 149.2209 278.9984 02.05100794207672
0 EXPLORER 20
1   870U 64051A   19266.58664353 +.00000051 +00000-0 +33969-4 0  9995
2   870 079.8962 072.4367 0097215 261.0352 097.9791 13.91135894791531
0 EXPLORER 20
1   870U 64051A   19267.01817264  .00000056  00000-0  37520-4 0  9997
2   870  79.8962  71.9674 0097220 259.8948  99.1229 13.91135937792065
0 SCOUT X-4 R/B
1   871U 64051B   19267.66282449  .00000109  00000-0  68043-4 0  9993
2   871  79.8912 259.1822 0086591 210.4150 149.1972 13.99292777801508
0 SCOUT X-4 R/B
1   871U 64051B   19266.87629152 +.00000110 +00000-0 +68356-4 0  9990
2   871 079.8912 260.0495 0086568 212.5156 147.0656 13.99292660800986
0 COSMOS 44
1   876U 64053A   19266.84394094 -.00000144 +00000-0 -99989-6 0  9995
2   876 065.0628 014.0677 0130180 152.5095 208.2973 14.63739262928693
0 COSMOS 44
1   876U 64053A   19267.80046855 -.00000144  00000-0 -95097-6 0  9997
2   876  65.0628  11.2507 0130080 152.1163 208.6991 14.63739259929360
0 SL-3 R/B
1   877U 64053B   19267.80209465 -.00000071  00000-0  10344-4 0  9994
2   877  65.0796  28.1615 0058439 158.7635 201.5910 14.59371401922572
0 SL-3 R/B
1   877U 64053B   19266.84270465 -.00000075 +00000-0 +95000-5 0  9992
2   877 065.0795 030.9648 0058543 159.1765 201.1739 14.59371269922446
0 OGO 1
1   879U 64054A   19270.40233210 -.00000606  00000-0  00000+0 0  9999
2   879  71.2305 320.9265 8543042 201.6753   0.5097  0.37737328 20576
0 THOR ABLESTAR R/B
1   893U 64063A   19266.89694932 +.00000005 +00000-0 -53219-5 0  9994
2   893 090.1583 026.8948 0024782 198.0351 309.6122 13.56121351718833
0 CALSPHERE 1
1   900U 64063C   19266.92177815 +.00000179 +00000-0 +18212-3 0  9996
2   900 090.1534 024.1126 0029135 138.9701 358.8332 13.73275893733731
0 CALSPHERE 1
1   900U 64063C   19267.86635375  .00000186  00000-0  18996-3 0  9997
2   900  90.1535  24.1277 0029176 136.3513 348.3979 13.73276255733865
0 OPS 5798 DEB
1   901U 64063D   19266.88129852 +.00000046 +00000-0 +53314-4 0  9996
2   901 090.1648 026.6895 0021546 083.2077 067.3913 13.54640299713598
0 CALSPHERE 2
1   902U 64063E   19266.36633896 +.00000004 +00000-0 -73348-5 0  9993
2   902 090.1629 026.6277 0018959 159.5179 261.4005 13.52675653523842
0 CALSPHERE 2
1   902U 64063E   19267.31919701  .00000004  00000-0 -71666-5 0  9992
2   902  90.1630  26.6434 0019039 156.8728 221.3471 13.52675644524426
0 SCOUT X-4 R/B
1   907U 64064B   19266.67691462 +.00000016 +00000-0 +70211-5 0  9994
2   907 079.6930 328.0034 0122562 115.9654 245.4183 13.80284584763401
0 EXPLORER 25 (INJUN-4)
1   932U 64076B   19266.61461486 +.00000085 +00000-0 +21531-4 0  9996
2   932 081.3377 103.8176 1132991 065.3753 306.1036 12.63974758508268
0 SCOUT X-4 R/B
1   933U 64076C   19266.86653383 +.00000086 +00000-0 +29535-4 0  9996
2   933 081.3353 279.5894 1071078 279.5330 068.6514 12.77331023522319
0 SCOUT X-4 R/B
1   933U 64076C   19267.10151049  .00000086  00000-0  29621-4 0  9992
2   933  81.3353 279.4053 1071075 278.9905  69.1668 12.77331053521906
0 THOR ABLESTAR R/B
1   953U 64083A   19266.91097953  .00000006  00000-0 -52002-5 0  9996
2   953  90.0083 189.4061 0034442  85.4805 316.8421 13.58629836715273
0 THOR ABLESTAR R/B
1   953U 64083A   19266.91097953 +.00000006 +00000-0 -52002-5 0  9996
2   953 090.0083 189.4061 0034442 085.4805 316.8421 13.58629836714812
0 THOR ABLESTAR DEB
1   956U 64083B   19266.22900234 +.00000094 +00000-0 +10175-3 0  9997
2   956 089.9757 180.9598 0028435 121.8708 030.9810 13.66100757720316
0 THOR ABLESTAR DEB
1   956U 64083B   19267.54150757  .00000099  00000-0  10791-3 0  9999
2   956  89.9756 180.9567 0028561 118.1730   5.6321 13.66101072720963
0 OPS 6582 (TRANSIT 5E-5)
1   959U 64083C   19266.89605934  .00000043  00000-0  43873-4 0  9998
2   959  89.9998 187.4867 0042438 359.0857  42.7158 13.61602108716072
0 OPS 6582 (TRANSIT 5E-5)
1   959U 64083C   19266.89605934 +.00000043 +00000-0 +43873-4 0  9998
2   959 089.9998 187.4867 0042438 359.0857 042.7158 13.61602108715600
0 EXPLORER 26 (EPE-D)
1   963U 64086A   19266.34996628 +.00044897 -12419-4 +35142-3 0  9995
2   963 019.7123 315.0908 0817661 026.3446 337.6298 14.16656038156160
0 OPS 6582 (TRANSIT 5B-5)
1   965U 64083D   19266.87143506 +.00000035 +00000-0 +36418-4 0  9993
2   965 090.0209 193.0335 0038576 265.0974 127.2910 13.56733097710361
0 OPS 6582 (TRANSIT 5B-5)
1   965U 64083D   19266.94767442  .00000035  00000-0  37117-4 0  9999
2   965  90.0209 193.0337 0038578 264.8616 139.6752 13.56733104710837
0 THOR ABLESTAR DEB
1   967U 64083F   19266.98206486  .00000069  00000-0  71083-4 0  9998
2   967  89.9820 182.7052 0027550 128.0064 351.3388 13.65991151720792
0 THOR ABLESTAR DEB
1   967U 64083F   19266.52856606 +.00000076 +00000-0 +79997-4 0  9993
2   967 089.9820 182.7060 0027512 129.2945 281.2871 13.65991148720266
0 SCOUT X-4 DEB
1   977U 64064D   19266.63200994 +.00000174 +00000-0 +15690-3 0  9996
2   977 080.0470 208.3652 0130261 026.2138 334.5526 13.77474776750963
